BEIDOU-3 M4             
1 43108U 18003B   20028.54344615 -.00000085  00000-0  00000-0 0  9996
2 43108  55.3252  22.4059 0004780 250.0859 267.4160  1.86232612 13933
